GSAT0225 (GALILEO 29)   
1 59598U 24079A   26178.08921058 -.00000038  00000+0  00000+0 0  9995
2 59598  55.1252 100.8034 0001602 296.6342 246.1420  1.70474177 13488
GSAT0227 (GALILEO 30)   
1 59600U 24079C   26179.14798577 -.00000034  00000+0  00000+0 0  9991
2 59600  55.1211 100.7723 0002648  63.8274 296.1782  1.70473976 13550
GSAT0232 (GALILEO 32)   
1 61182U 24167A   26178.21100855  .00000067  00000+0  00000+0 0  9995
2 61182  55.1827 221.0386 0006275 229.7810 130.7838  1.70474501 11055
GSAT0226 (GALILEO 31)   
1 61183U 24167B   26177.47940175  .00000064  00000+0  00000+0 0  9997
2 61183  55.1816 221.0657 0002937 230.4036 132.4929  1.70474505 11015
BEIDOU-3 M25            
1 61186U 24168B   26177.68837491 -.00000100  00000+0  00000+0 0  9992
2 61186  54.4642 301.9122 0003152 298.5828 129.4520  1.86230368 11967
BEIDOU-3 M27            
1 61187U 24168C   26179.53313503 -.00000086  00000+0  00000+0 0  9995
2 61187  54.4577 301.8312 0001317  47.2683 312.6139  1.86230464  9465
NAVSTAR 83 (USA 440)    
1 62339U 24242A   26177.06783932 -.00000106  00000+0  00000+0 0  9994
2 62339  54.8454 333.8210 0017666   4.5395 177.0108  2.00572026 11434
QZS-6 (MICHIBIKI-6)     
1 62876U 25023A   26179.65327861 -.00000222  00000+0  00000+0 0  9999
2 62876   0.0521 282.3683 0002110 188.1012 131.9822  1.00273059  5060
COSMOS 2584 [GLONASS-K2]
1 63130U 25042A   26176.58687826 -.00000066  00000+0  00000+0 0  9999
2 63130  65.0897  72.5163 0006261 227.4073 132.5759  2.13103987 10225
NAVSTAR 84 (USA 545)    
1 64202U 25116A   26178.80819903 -.00000078  00000+0  00000+0 0  9995
2 64202  55.2417  30.7029 0008259 342.1141 199.0923  2.00575452  8080
COSMOS 2596 [GLONASS-K1]
1 65590U 25206B   26178.83593120 -.00000080  00000+0  00000+0 0  9992
2 65590  64.6279 314.6147 0011061 310.3600  91.2409  2.13101038  6144
GSAT0233 (GALILEO 33)   
1 67160U 25302A   26179.36372269 -.00000033  00000+0  00000+0 0  9990
2 67160  54.3415 101.8130 0000883 200.7223 335.1297  1.70474273  3315
GSAT0234 (GALILEO 34)   
1 67162U 25302C   26178.48815267 -.00000036  00000+0  00000+0 0  9997
2 67162  54.3430 101.8368 0002918 307.1901 231.4101  1.70474246  3359
NAVSTAR 85 (USA 581)    
1 67588U 26017A   26179.16567897 -.00000055  00000+0  00000+0 0  9993
2 67588  55.0953  88.3146 0020894 258.1003 101.6754  2.00570961431838
NAVSTAR 86 (USA 585)    
1 68791U 26087A   26173.65141046  .00000058  00000+0  00000+0 0  9991
2 68791  54.9627 207.5713 0020681 106.6591  76.9843  2.00570839   940
